H1 CPF 01  gfz 2022 08 20 00  7321 terrasarx 
H2 0702601  6201 31698    2022 08 20 00 59 42 2022 08 25 00 00 42   120 1 1  0 0 0
H9
10 0 59811  69822.000000  0   -4384298.484    913015.899   5224144.667
10 0 59811  69942.000000  0   -4962038.096   1264346.437   4598193.179
10 0 59811  70062.000000  0   -5447020.037   1602880.635   3891307.493
10 0 59811  70182.000000  0   -5831029.362   1920998.161   3115907.358
10 0 59811  70302.000000  0   -6107752.790   2211308.143   2285632.391
10 0 59811  70422.000000  0   -6272891.034   2466815.943   1415100.767
10 0 59811  70542.000000  0   -6324232.049   2681085.223    519646.485
10 0 59811  70662.000000  0   -6261681.193   2848390.199   -384958.744
10 0 59811  70782.000000  0   -6087248.970   2963854.317  -1282792.063
10 0 59811  70902.000000  0   -5804996.085   3023571.853  -2158068.564
10 0 59811  71022.000000  0   -5420937.241   3024709.875  -2995427.457
10 0 59811  71142.000000  0   -4942905.666   2965586.676  -3780206.939
10 0 59811  71262.000000  0   -4380384.098   2845726.159  -4498702.372
10 0 59811  71382.000000  0   -3744306.661   2665886.923  -5138402.733
10 0 59811  71502.000000  0   -3046837.385   2428065.891  -5688201.127
10 0 59811  71622.000000  0   -2301132.360   2135478.010  -6138577.759
10 0 59811  71742.000000  0   -1521087.771   1792511.661  -6481754.953
10 0 59811  71862.000000  0    -721080.147   1404660.726  -6711818.881
10 0 59811  71982.000000  0      84295.009    978435.826  -6824810.977
10 0 59811  72102.000000  0     880482.984    521256.272  -6818788.203
10 0 59811  72222.000000  0    1653226.974     41323.668  -6693854.962
10 0 59811  72342.000000  0    2388818.256   -452522.146  -6452160.436
10 0 59811  72462.000000  0    3074334.010   -950961.358  -6097865.905
10 0 59811  72582.000000  0    3697862.015  -1444365.279  -5637080.053
10 0 59811  72702.000000  0    4248707.407  -1922977.462  -5077764.587
10 0 59811  72822.000000  0    4717580.612  -2377104.510  -4429608.278
10 0 59811  72942.000000  0    5096760.185  -2797310.936  -3703869.517
10 0 59811  73062.000000  0    5380228.454  -3174614.399  -2913190.095
10 0 59811  73182.000000  0    5563777.055  -3500677.425  -2071380.835
10 0 59811  73302.000000  0    5645077.748  -3767990.751  -1193182.355
10 0 59811  73422.000000  0    5623717.108  -3970044.491   -294005.832
10 0 59811  73542.000000  0    5501193.246  -4101481.767    610342.279
10 0 59811  73662.000000  0    5280873.786  -4158231.529   1503945.748
10 0 59811  73782.000000  0    4967915.061  -4137615.654   2371068.298
10 0 59811  73902.000000  0    4569144.921  -4038426.178   3196439.328
10 0 59811  74022.000000  0    4092913.551  -3860973.052   3965529.282
10 0 59811  74142.000000  0    3548915.909  -3607101.574   4664810.675
10 0 59811  74262.000000  0    2947988.112  -3280177.623   5281998.605
10 0 59811  74382.000000  0    2301886.260  -2885041.567   5806265.114
10 0 59811  74502.000000  0    1623051.259  -2427933.005   6228426.048
10 0 59811  74622.000000  0     924365.094  -1916388.386   6541095.879
10 0 59811  74742.000000  0     218904.169  -1359113.631   6738810.796
10 0 59811  74862.000000  0    -480305.944   -765833.735   6818118.505
10 0 59811  74982.000000  0   -1160530.107   -147121.873   6777634.101
10 0 59811  75102.000000  0   -1809554.481    485788.658   6618062.689
10 0 59811  75222.000000  0   -2415905.060   1121207.777   6342187.958
10 0 59811  75342.000000  0   -2969050.773   1747203.498   5954826.830
10 0 59811  75462.000000  0   -3459587.974   2351825.372   5462751.082
10 0 59811  75582.000000  0   -3879404.329   2923333.731   4874575.760
10 0 59811  75702.000000  0   -4221817.902   3450429.862   4200613.750
10 0 59811  75822.000000  0   -4481689.334   3922482.486   3452699.611
10 0 59811  75942.000000  0   -4655504.162   4329746.066   2643983.758
10 0 59811  76062.000000  0   -4741422.046   4663566.525   1788700.509
10 0 59811  76182.000000  0   -4739292.020   4916568.323    901913.276
10 0 59811  76302.000000  0   -4650633.883   5082816.564      -757.083
10 0 59811  76422.000000  0   -4478586.649   5157952.605   -903415.076
10 0 59811  76542.000000  0   -4227822.802   5139298.677  -1790181.643
10 0 59811  76662.000000  0   -3904429.407   5025925.945  -2645481.816
10 0 59811  76782.000000  0   -3515764.361   4818688.384  -3454325.069
10 0 59811  76902.000000  0   -3070287.563   4520218.565  -4202571.248
10 0 59811  77022.000000  0   -2577374.280   4134888.604  -4877175.655
10 0 59811  77142.000000  0   -2047115.804   3668738.938  -5466410.006
10 0 59811  77262.000000  0   -1490112.199   3129377.037  -5960058.583
10 0 59811  77382.000000  0    -917260.076   2525846.127  -6349586.039
10 0 59811  77502.000000  0    -339540.597   1868468.259  -6628273.250
10 0 59811  77622.000000  0     232187.501   1168666.305  -6791321.832
10 0 59811  77742.000000  0     787386.754    438767.008  -6835928.377
10 0 59811  77862.000000  0    1316031.195   -308212.207  -6761328.252
10 0 59811  77982.000000  0    1808783.134  -1058790.903  -6568805.847
10 0 59811  78102.000000  0    2257153.784  -1799262.354  -6261674.386
10 0 59811  78222.000000  0    2653647.643  -2515937.468  -5845225.271
10 0 59811  78342.000000  0    2991887.840  -3195393.570  -5326648.047
10 0 59811  78462.000000  0    3266721.808  -3824726.587  -4714917.307
10 0 59811  78582.000000  0    3474301.940  -4391797.154  -4020646.131
10 0 59811  78702.000000  0    3612141.435  -4885467.302  -3255912.664
10 0 59811  78822.000000  0    3679145.846  -5295825.885  -2434059.052
10 0 59811  78942.000000  0    3675616.385  -5614396.260  -1569462.151
10 0 59811  79062.000000  0    3603224.963  -5834318.209   -677281.972
10 0 59811  79182.000000  0    3464961.170  -5950501.597    226808.306
10 0 59811  79302.000000  0    3265050.803  -5959745.329   1126904.259
10 0 59811  79422.000000  0    3008850.212  -5860820.127   2007158.412
10 0 59811  79542.000000  0    2702716.614  -5654509.686   2852069.550
10 0 59811  79662.000000  0    2353858.211  -5343610.920   3646762.866
10 0 59811  79782.000000  0    1970169.534  -4932894.801   4377256.827
10 0 59811  79902.000000  0    1560055.549  -4429027.848   5030712.631
10 0 59811  80022.000000  0    1132249.627  -3840456.462   5595660.261
10 0 59811  80142.000000  0     695627.685  -3177256.444   6062198.604
10 0 59811  80262.000000  0     259023.993  -2450951.904   6422162.757
10 0 59811  80382.000000  0    -168946.362  -1674309.627   6669259.789
10 0 59811  80502.000000  0    -580055.740   -861112.267   6799172.784
10 0 59811  80622.000000  0    -966620.854    -25912.225   6809632.843
10 0 59811  80742.000000  0   -1321645.508    816229.284   6700456.143
10 0 59811  80862.000000  0   -1638946.760   1650013.251   6473546.606
10 0 59811  80982.000000  0   -1913262.752   2460179.841   6132864.916
10 0 59811  81102.000000  0   -2140340.710   3231787.825   5684363.635
10 0 59811  81222.000000  0   -2317003.285   3950491.599   5135888.975
10 0 59811  81342.000000  0   -2441193.309   4602812.172   4497050.729
10 0 59811  81462.000000  0   -2511995.204   5176396.833   3779059.142
10 0 59811  81582.000000  0   -2529632.397   5660261.442   2994531.048
10 0 59811  81702.000000  0   -2495440.258   6045008.955   2157267.994
10 0 59811  81822.000000  0   -2411815.635   6323019.836   1282011.219
10 0 59811  81942.000000  0   -2282143.385   6488609.503    384176.998
10 0 59811  82062.000000  0   -2110701.958   6538148.454   -520422.083
10 0 59811  82182.000000  0   -1902550.717   6470142.328  -1415864.697
10 0 59811  82302.000000  0   -1663400.584   6285267.596  -2286412.986
10 0 59811  82422.000000  0   -1399471.353   5986358.909  -3116796.818
10 0 59811  82542.000000  0   -1117341.723   5578356.184  -3892483.552
10 0 59811  82662.000000  0    -823795.578   5068212.179  -4599932.739
10 0 59811  82782.000000  0    -525667.629   4464761.733  -5226828.680
10 0 59811  82902.000000  0    -229691.839   3778558.547  -5762288.328
10 0 59811  83022.000000  0      57644.281   3021681.145  -6197041.922
10 0 59811  83142.000000  0     330235.708   2207512.822  -6523582.194
10 0 59811  83262.000000  0     582483.557   1350502.804  -6736282.094
10 0 59811  83382.000000  0     809405.334    465911.155  -6831482.713
10 0 59811  83502.000000  0    1006729.534   -430459.066  -6807549.197
10 0 59811  83622.000000  0    1170973.227  -1322538.717  -6664894.898
10 0 59811  83742.000000  0    1299501.740  -2194272.759  -6405973.507
10 0 59811  83862.000000  0    1390570.539  -3029901.263  -6035242.400
10 0 59811  83982.000000  0    1443348.431  -3814240.588  -5559095.947
10 0 59811  84102.000000  0    1457920.428  -4532959.786  -4985765.087
10 0 59811  84222.000000  0    1435272.047  -5172843.841  -4325185.320
10 0 59811  84342.000000  0    1377253.961  -5722042.883  -3588836.247
10 0 59811  84462.000000  0    1286526.689  -6170301.418  -2789550.390
10 0 59811  84582.000000  0    1166487.780  -6509160.986  -1941295.084
10 0 59811  84702.000000  0    1021182.455  -6732132.184  -1058930.154
10 0 59811  84822.000000  0     855198.419  -6834830.261   -157945.197
10 0 59811  84942.000000  0     673548.306  -6815069.745    745817.706
10 0 59811  85062.000000  0     481542.732  -6672916.381   1636449.775
10 0 59811  85182.000000  0     284656.883  -6410694.221   2498264.980
10 0 59811  85302.000000  0      88394.106  -6032945.738   3316086.508
10 0 59811  85422.000000  0    -101850.516  -5546345.475   4075520.987
10 0 59811  85542.000000  0    -280922.598  -4959573.800   4763214.832
10 0 59811  85662.000000  0    -444033.267  -4283152.405   5367090.718
10 0 59811  85782.000000  0    -586873.314  -3529245.913   5876558.349
10 0 59811  85902.000000  0    -705714.727  -2711432.993   6282697.091
10 0 59811  86022.000000  0    -797497.236  -1844453.901   6578404.580
10 0 59811  86142.000000  0    -859898.413   -943942.037   6758513.972
10 0 59811  86262.000000  0    -891386.627    -26140.514   6819880.171
99
